0 YAOGAN 9A
1 36413U 10009A   13282.11890809 -.00000101  00000-0 -17037-4 0   749
2 36413 063.4054 051.9777 0125560 359.3566 000.7273 13.45077562176725
0 YAOGAN 9A
1 36413U 10009A   13282.41628875 -.00000108  00000-0 -28263-4 0   755
2 36413 063.4054 051.2142 0125579 359.3588 000.7254 13.45077504176767
0 YAOGAN 9A
1 36413U 10009A   13282.71366937 -.00000099  00000-0 -13887-4 0   762
2 36413 063.4056 050.4504 0125601 359.3537 000.7311 13.45077563176806
0 YAOGAN 9A
1 36413U 10009A   13283.82884629 -.00000094  00000-0 -66893-5 0   781
2 36413 063.4063 047.5880 0125703 359.3467 000.7381 13.45077675176950
0 YAOGAN 9A
1 36413U 10009A   13286.05919998 -.00000069  00000-0  34837-4 0   814
2 36413 063.4065 041.8613 0125883 359.3539 000.7304 13.45077918177251
0 YAOGAN 9A
1 36413U 10009A   13286.65396089 -.00000068  00000-0  35478-4 0   822
2 36413 063.4066 040.3345 0125947 359.3599 000.7239 13.45077958177335
0 YAOGAN 9A
1 36413U 10009A   13287.76913766 -.00000052  00000-0  61080-4 0   834
2 36413 063.4068 037.4713 0126026 359.3615 000.7232 13.45078170177487
0 YAOGAN 9A
1 36413U 10009A   13288.06651805 -.00000052  00000-0  61080-4 0   842
2 36413 063.4068 036.7081 0126026 359.3619 000.7227 13.45078192177524
0 YAOGAN 9A
1 36413U 10009A   13288.73562401 -.00000047  00000-0  69322-4 0   851
2 36413 063.4070 034.9902 0126114 359.3549 000.7294 13.45078291177613
0 YAOGAN 9A
1 36413U 10009A   13289.85080049 -.00000043  00000-0  75786-4 0   866
2 36413 063.4074 032.1283 0126215 359.3326 000.7513 13.45078453177764
0 YAOGAN 9A
1 36413U 10009A   13290.59426142  .00000094  00000-0  15255-3 0   888
2 36413 063.4066 030.2164 0126466 359.4246 000.7058 13.45078617 43636
0 YAOGAN 9A
1 36413U 10009A   13290.81728703 -.00000052  00000-0  60986-4 0   899
2 36413 063.4069 029.6453 0126409 359.3607 000.7234 13.45078425177898
0 YAOGAN 9A
1 36413U 10009A   13292.22984409 -.00000058  00000-0  52511-4 0   906
2 36413 063.4071 026.0191 0126594 359.3654 000.7182 13.45078470178082
0 YAOGAN 9A
1 36413U 10009A   13292.45287956 -.00000064  00000-0  41480-4 0   915
2 36413 063.4072 025.4467 0126606 359.3680 000.7156 13.45078400178113
0 YAOGAN 9A
1 36413U 10009A   13293.64240107 -.00000075  00000-0  25117-4 0   926
2 36413 063.4079 022.3945 0126677 359.3501 000.7320 13.45078384178278
0 YAOGAN 9A
1 36413U 10009A   13294.31150741 -.00000087  00000-0  50455-5 0   933
2 36413 063.4075 020.6755 0126794 359.3641 000.7195 13.45078298178363
0 YAOGAN 9A
1 36413U 10009A   13295.42668380 -.00000072  00000-0  28851-4 0   948
2 36413 063.4080 017.8137 0126877 359.3524 000.7309 13.45078482178512
0 YAOGAN 9A
1 36413U 10009A   13295.72406435 -.00000370  00000-0 -45245-3 0   950
2 36413 063.4068 017.0458 0127498 358.9463 001.0965 13.45074715178554
0 YAOGAN 9A
1 36413U 10009A   13296.09579728 -.00000063  00000-0  43673-4 0   960
2 36413 063.4081 016.0962 0126898 359.3501 000.7715 13.45078633178607
